[ {"line1": "1 38277U 79095BX  20345.29383196 +.00002010 +00000-0 +84110-3 0  9992", "line2": "2 38277 081.2112 326.0873 0016270 359.9920 065.1266 14.25719651483446"}, {"line1": "1 38276U 79095BW  20346.28948468  .00001513  00000-0  74145-3 0  9994", "line2": "2 38276  81.1975 353.4298 0016682 102.3180 269.4701 14.17328974464279"}, {"line1": "1 38275U 79095BV  20346.68425221  .00001500  00000-0  65202-3 0  9994", "line2": "2 38275  81.1886 325.9527 0009471  30.1645 330.0076 14.23666064384846"}, {"line1": "1 38274U 79095BU  20345.30272608 +.00001396 +00000-0 +65566-3 0  9996", "line2": "2 38274 081.2028 342.1672 0025940 065.2427 295.1444 14.19426561324667"}, {"line1": "1 38273U 79095BT  20346.25628836  .00000194  00000-0  85835-4 0  9995", "line2": "2 38273  81.2147 345.6480 0004378  99.2955 260.8717 14.19758361388521"}, {"line1": "1 38272U 79095BS  20345.79203774  .00001465  00000-0  72238-3 0  9996", "line2": "2 38272  81.2040 355.2678 0028996 120.9626  52.7178 14.16842038373948"}, {"line1": "1 38271U 79095BR  20347.73490050 -.00000080 +00000-0 -45503-4 0  9996", "line2": "2 38271 081.2036 350.4143 0012222 021.4513 338.7171 14.17481250473443"}, {"line1": "1 38270U 12020C   20348.07777464  .00011282  00000-0  54868-3 0  9992", "line2": "2 38270  97.3408 280.6326 0102536 353.5067   6.4829 15.13966360469273"}, {"line1": "1 38269U 12020B   20347.53602837  .00018115  00000-0  47427-3 0  9996", "line2": "2 38269  97.2033 355.7472 0059726 165.1452 195.1565 15.36911100473036"}, {"line1": "1 38266U 09069C   20348.13717389  .00000280  00000-0  11503-3 0  9998", "line2": "2 38266  97.9643 109.3519 0259270 301.3773  56.2273 14.17437081563906"}, {"line1": "1 38265U 09069B   20347.77172024 +.00000412 +00000-0 +15172-3 0  9990", "line2": "2 38265 097.8386 074.4494 0240099 166.8087 193.9524 14.22233560565310"}, {"line1": "1 38264U 08061C   20346.51890898  .00000327  00000-0  12798-3 0  9993", "line2": "2 38264  97.8656 359.2270 0262160 269.3164 246.5536 14.18384054618152"}, {"line1": "1 38263U 07019C   20347.91614488  .00000345  00000-0  12671-3 0  9998", "line2": "2 38263  97.8789  27.1917 0225710 287.1237  70.5341 14.25341296702439"}, {"line1": "1 38262U 07019B   20346.12728522  .00000477  00000-0  14886-3 0  9990", "line2": "2 38262  97.8052  40.7715 0182779  14.4342  14.2929 14.35713858681434"}, {"line1": "1 38257U 12021A   20348.22890431  .00001528  00000-0  66912-4 0  9991", "line2": "2 38257  97.4684 119.1752 0001798  57.3707  60.5377 15.23556609479612"}, {"line1": "1 38256U 12020A   20348.11118596  .00001476  00000-0  64947-4 0  9990", "line2": "2 38256  97.4361 109.8252 0017302  70.9237 101.7067 15.23328485478466"}, {"line1": "1 38254U 12019A   20347.88188028 -.00000269 +00000-0 +00000-0 0  9992", "line2": "2 38254 002.2928 052.3542 0001425 153.4789 126.1476 01.00274203030679"}, {"line1": "1 38251U 12018B   20347.86383457 -.00000074 +00000-0 +00000-0 0  9993", "line2": "2 38251 056.6774 011.1365 0015785 247.0894 271.3995 01.86232712058813"}, {"line1": "1 38250U 12018A   20347.90737042 -.00000074  00000-0  00000+0 0  9999", "line2": "2 38250  56.7525  11.7749 0024878 245.2449 257.8809  1.86234422 58811"}, {"line1": "1 38248U 12017A   20348.01851579  .00000705  00000-0  46924-4 0  9990", "line2": "2 38248  97.5639 355.0597 0004329  14.8043 345.3313 15.10276412475588"}, {"line1": "1 38247U 12016C   20347.40887432 -.00000109 +00000-0 +00000-0 0  9997", "line2": "2 38247 024.4364 280.5528 6172462 014.6405 357.1197 02.19986312069411"}, {"line1": "1 38246U 12016B   20346.76394303  .00000838  00000-0  17139-3 0  9996", "line2": "2 38246  49.5689 152.8025 5087870   9.7166 357.2679  5.44146201170164"}, {"line1": "1 38245U 12016A   20347.91160370 +.00000134 +00000-0 +00000-0 0  9993", "line2": "2 38245 000.0220 007.1880 0001810 249.3816 201.2865 01.00270764025429"}, {"line1": "1 38244U 97051ZU  20345.48209458  .00016932  00000-0  14986-2 0  9998", "line2": "2 38244  86.4195  54.3899 0004861 311.9221  48.1594 14.96181734581719"}, {"line1": "1 38243U 97051ZT  20345.54886952 +.00003624 +00000-0 +71462-3 0  9991", "line2": "2 38243 086.3784 072.2505 0068652 134.8257 225.8562 14.60717278377400"}, {"line1": "1 38241U 97051ZR  20347.96116640  .00000492  00000-0  14117-3 0  9991", "line2": "2 38241  86.3285  64.8171 0003178  38.0381 322.1043 14.42984547574651"}, {"line1": "1 38237U 97051ZM  20345.94245664  .00013420  00000-0  14882-2 0  9994", "line2": "2 38237  86.3657  45.2915 0009542 219.1080 262.9924 14.87150698366241"}, {"line1": "1 38236U 97051ZL  20340.96196290 +.00001145 +00000-0 +36880-3 0  9994", "line2": "2 38236 086.2529 066.1102 0068001 202.9228 156.8931 14.37169084519755"}, {"line1": "1 38235U 97051ZK  20346.93910435  .00008260  00000-0  11308-2 0  9993", "line2": "2 38235  86.3928  61.7868 0022668  98.7374 261.6414 14.78210997329395"}, {"line1": "1 38234U 97051ZJ  20342.62392742  .00009450  00000-0  15436-2 0  9997", "line2": "2 38234  86.4427 120.0599 0087838 119.1758 241.8281 14.68202478581490"}, {"line1": "1 38233U 97051ZH  20347.64214609 +.00001862 +00000-0 +78656-3 0  9991", "line2": "2 38233 086.2149 115.0350 0154796 311.9673 058.7363 14.18905381395850"}, {"line1": "1 38232U 97051ZG  20345.80838929  .00005656  00000-0  14578-2 0  9990", "line2": "2 38232  86.4592 170.5623 0060484 152.7977 207.6418 14.48821348600724"}, {"line1": "1 38231U 97051ZF  20346.29119157  .00017825  00000-0  17415-2 0  9992", "line2": "2 38231  86.2461 351.8781 0040859 353.9841  17.0056 14.91645381397604"}, {"line1": "1 38229U 97051ZD  20347.95559200  .00002622  00000-0  14782-2 0  9993", "line2": "2 38229  86.3740 239.1321 0236160 319.3920  38.9844 13.96966009560073"}, {"line1": "1 38228U 97051ZC  20347.59933596 +.00000262 +00000-0 +10519-3 0  9999", "line2": "2 38228 086.2967 101.0751 0065831 290.8651 079.9649 14.23372169587802"}, {"line1": "1 38227U 97051ZB  20342.43535331 +.00001606 +00000-0 +38570-3 0  9991", "line2": "2 38227 086.3140 046.2201 0006629 252.8590 107.1890 14.52853466390805"}, {"line1": "1 38226U 97051ZA  20343.25914831  .00006454  00000-0  12112-2 0  9996", "line2": "2 38226  86.3731  78.8097 0011954 197.1525 162.9285 14.64563387599373"}, {"line1": "1 38225U 97051YZ  20345.89558527  .00000132  00000-0  55380-4 0  9996", "line2": "2 38225  86.3371 203.6064 0193245 152.9500 222.2836 14.07923998364412"}, {"line1": "1 38224U 97051YY  20346.69292213  .00004539  00000-0  12903-2 0  9998", "line2": "2 38224  86.3782 146.2017 0105274 292.3649  66.6421 14.41978892434784"}, {"line1": "1 38221U 93036BTM 20347.59949074  .00003179  00000-0  51529-3 0  9995", "line2": "2 38221  74.0081 110.6838 0079669 303.8428  55.5177 14.69564885381019"}, {"line1": "1 38220U 93036BTL 20347.17704216  .00001098  00000-0  30933-3 0  9999", "line2": "2 38220  74.0339 309.6143 0012337 101.5099 258.7445 14.46953387447336"}, {"line1": "1 38219U 93036BTK 20348.13786429  .00059471  00000-0  16106-2 0  9993", "line2": "2 38219  73.6458 275.7114 0016743 273.0345  86.8943 15.37244461607042"}, {"line1": "1 38216U 93036BTG 20343.48003130  .00017178  00000-0  12703-2 0  9991", "line2": "2 38216  74.0031  19.3375 0004968 328.4225  31.6664 15.03167481390608"}, {"line1": "1 38215U 93036BTF 20347.07759490  .00004169  00000-0  76671-3 0  9997", "line2": "2 38215  74.0268 205.2026 0010134 341.9147 143.6265 14.65925773479212"}, {"line1": "1 38214U 93036BTE 20347.86414167  .00091655  00000-0  21392-2 0  9997", "line2": "2 38214  74.0329 178.4181 0006379  74.7553 285.4361 15.41774128365374"}, {"line1": "1 38213U 93036BTD 20342.19319050  .00001679  00000-0  42525-3 0  9991", "line2": "2 38213  74.0476 289.3912 0016707  70.0834 290.2125 14.51606849337013"}, {"line1": "1 38212U 93036BTC 20345.52859100 +.00000418 +00000-0 +74697-4 0  9991", "line2": "2 38212 074.0565 018.0226 0115695 205.9421 153.5922 14.66234583544466"}, {"line1": "1 38210U 93036BTA 20348.01451144  .00002714  00000-0  44444-3 0  9999", "line2": "2 38210  74.0200  93.5556 0026358 304.6220  55.2466 14.71081265489210"}, {"line1": "1 38208U 93036BSY 20347.19512112  .00000970  00000-0  27983-3 0  9998", "line2": "2 38208  74.0215 308.5159 0012861 128.2312 243.9221 14.45970748445689"}, {"line1": "1 38200U 93036BSQ 20347.88951553  .00007523  00000-0  50581-3 0  9993", "line2": "2 38200  74.0572 205.2564 0079134 313.8086  45.6575 15.04339769592428"}, {"line1": "1 38199U 93036BSP 20345.92684774  .00000291  00000-0  25122-3 0  9999", "line2": "2 38199  73.9541 174.3387 0379139 101.2558 263.1407 13.61479223361245"}, {"line1": "1 38198U 93036BSN 20343.81025450  .00005229  00000-0  63635-3 0  9991", "line2": "2 38198  74.0161  26.8662 0036433 222.7565 137.0778 14.83228597560124"}, {"line1": "1 38197U 93036BSM 20347.22418221  .00000704  00000-0  21733-3 0  9997", "line2": "2 38197  73.9502 160.7467 0238776  83.7288 279.0998 14.28022506594390"}, {"line1": "1 38196U 93036BSL 20345.78359644  .00003603  00000-0  82522-3 0  9992", "line2": "2 38196  73.8921  27.3382 0197776 234.3225 123.9384 14.44653852511966"}, {"line1": "1 38195U 93036BSK 20344.18548877  .00002773  00000-0  60277-3 0  9992", "line2": "2 38195  73.8300 163.9494 0046924  61.4410 299.1464 14.57870413402478"}, {"line1": "1 38192U 93036BSG 20345.20176540  .00003613  00000-0  64659-3 0  9999", "line2": "2 38192  74.0203 161.1192 0019712 338.2171  21.8158 14.67106683518659"}, {"line1": "1 38191U 93036BSF 20345.71266322  .00002452  00000-0  65859-3 0  9995", "line2": "2 38191  74.0066 347.8455 0037812 146.5453 213.8106 14.48212493321502"}, {"line1": "1 38190U 93036BSE 20347.57144322  .00001312  00000-0  34101-3 0  9995", "line2": "2 38190  74.0485 280.5765 0014652  62.2192 298.0452 14.50620532483793"}, {"line1": "1 38189U 93036BSD 20346.22668368  .00009964  00000-0  11100-2 0  9999", "line2": "2 38189  74.0182  63.2128 0006887 237.8812 153.9512 14.87160200405009"}, {"line1": "1 38188U 93036BSC 20347.34113103  .00001339  00000-0  40388-3 0  9993", "line2": "2 38188  74.0157   3.9617 0044247 184.4692 188.5092 14.42904313398436"}]